NORAD_CAT_ID,OBJECT_NAME,OBJECT_TYPE,EPOCH,MEAN_MOTION,ECCENTRICITY,INCLINATION,RA_OF_ASC_NODE,ARG_OF_PERICENTER,MEAN_ANOMALY,BSTAR,MEAN_MOTION_DOT,MEAN_MOTION_DDOT,TLE_LINE0,TLE_LINE1,TLE_LINE2,SEMIMAJOR_AXIS,PERIOD,APOGEE,PERIGEE,DECAYED
55304.0,STARLINK-5318,PAYLOAD,2023-02-15 21:27:14,15.6994723,0.0003468,70.0001,351.9752,259.3071,100.7734,7.791e-05,9.175e-05,0.0,0 STARLINK-5318,1 55304U 23010AM  23046.89391995  .00009175  00000-0  77910-4 0  9991,2 55304  70.0001 351.9752 0003468 259.3071 100.7734 15.69947230  5112,6737.185,91.723,361.386,356.714,0.0
55304.0,STARLINK-5318,PAYLOAD,2023-02-15 22:58:59,15.69953065,0.000352,70.0003,351.7964,262.4959,97.5837,9.0192e-05,0.00010659,0.0,0 STARLINK-5318,1 55304U 23010AM  23046.95763575  .00010659  00000-0  90192-4 0  9991,2 55304  70.0003 351.7964 0003520 262.4959  97.5837 15.69953065  4812,6737.168,91.722,361.405,356.662,0.0
55304.0,STARLINK-5318,PAYLOAD,2023-02-16 08:09:30,15.69917619,0.0003292,70.0006,350.7212,271.896,88.1859,1.7868e-05,1.936e-05,0.0,0 STARLINK-5318,1 55304U 23010AM  23047.33994182  .00001936  00000-0  17868-4 0  9991,2 55304  70.0006 350.7212 0003292 271.8960  88.1859 15.69917619  4873,6737.27,91.725,361.353,356.917,0.0
55304.0,STARLINK-5318,PAYLOAD,2023-02-16 12:44:46,15.69908213,0.0003392,70.0006,350.1852,276.3441,83.7368,-2.6356e-05,-3.378e-05,0.0,0 STARLINK-5318,1 55304U 23010AM  23047.53109570 -.00003378  00000-0 -26356-4 0  9998,2 55304  70.0006 350.1852 0003392 276.3441  83.7368 15.69908213  5217,6737.297,91.725,361.447,356.876,0.0
55304.0,STARLINK-5318,PAYLOAD,2023-02-16 21:55:17,15.69909909,0.0003313,70.0008,349.1095,276.3977,83.6841,0.00017894,0.00021345,0.0,0 STARLINK-5318,1 55304U 23010AM  23047.91340175  .00021345  00000-0  17894-3 0  9996,2 55304  70.0008 349.1095 0003313 276.3977  83.6841 15.69909909  5277,6737.292,91.725,361.389,356.925,0.0
55304.0,STARLINK-5318,PAYLOAD,2023-02-17 13:12:48,15.69931879,0.0003319,70.001,347.3176,272.5386,87.5429,0.00045547,0.0005493,0.0,0 STARLINK-5318,1 55304U 23010AM  23048.55056546  .00054930  00000-0  45547-3 0  9995,2 55304  70.0010 347.3176 0003319 272.5386  87.5429 15.69931879  5061,6737.229,91.724,361.33,356.858,0.0
55304.0,STARLINK-5318,PAYLOAD,2023-02-17 20:51:34,15.69943344,0.0003381,70.001,346.4218,270.8297,89.2511,0.00045896,0.00055383,0.0,0 STARLINK-5318,1 55304U 23010AM  23048.86914714  .00055383  00000-0  45896-3 0  9999,2 55304  70.0010 346.4218 0003381 270.8297  89.2511 15.69943344  5116,6737.196,91.723,361.339,356.783,0.0
55304.0,STARLINK-5318,PAYLOAD,2023-02-17 22:23:19,15.69953649,0.0003368,70.0011,346.2427,268.4734,91.6075,0.00049779,0.00060146,0.0,0 STARLINK-5318,1 55304U 23010AM  23048.93286246  .00060146  00000-0  49779-3 0  9996,2 55304  70.0011 346.2427 0003368 268.4734  91.6075 15.69953649  5437,6737.167,91.722,361.301,356.763,0.0
55304.0,STARLINK-5318,PAYLOAD,2023-02-18 06:02:04,15.69927254,0.0003244,70.0013,345.3468,272.9959,87.0866,1.7623e-06,-1e-08,0.0,0 STARLINK-5318,1 55304U 23010AM  23049.25144530 -.00000001  00000-0  17623-5 0  9991,2 55304  70.0013 345.3468 0003244 272.9959  87.0866 15.69927254  5177,6737.242,91.724,361.293,356.922,0.0
55304.0,STARLINK-5318,PAYLOAD,2023-02-18 13:40:50,15.6991693,0.00035,70.0014,344.4516,268.9851,91.0944,-2.9497e-05,-3.757e-05,0.0,0 STARLINK-5318,1 55304U 23010AM  23049.57003113 -.00003757  00000-0 -29497-4 0  9990,2 55304  70.0014 344.4516 0003500 268.9851  91.0944 15.69916930  5534,6737.272,91.725,361.495,356.779,0.0
55304.0,STARLINK-5318,PAYLOAD,2023-02-19 12:37:07,15.69920884,0.0003568,70.0017,341.7643,271.0314,89.0473,0.00012212,0.00014495,0.0,0 STARLINK-5318,1 55304U 23010AM  23050.52577931  .00014495  00000-0  12212-3 0  9996,2 55304  70.0017 341.7643 0003568 271.0314  89.0473 15.69920884  5370,6737.26,91.724,361.529,356.721,0.0
55304.0,STARLINK-5318,PAYLOAD,2023-02-20 08:29:53,15.70006394,0.0003403,70.0015,339.4354,268.325,91.7556,0.00071905,0.00087451,0.0,0 STARLINK-5318,1 55304U 23010AM  23051.35408683  .00087451  00000-0  71905-3 0  9991,2 55304  70.0015 339.4354 0003403 268.3250  91.7556 15.70006394  5507,6737.016,91.719,361.173,356.588,0.0
55304.0,STARLINK-5318,PAYLOAD,2023-02-20 13:05:08,15.69972751,0.0003509,70.0014,338.8983,262.3662,97.7135,0.00042447,0.00051243,0.0,0 STARLINK-5318,1 55304U 23010AM  23051.54523537  .00051243  00000-0  42447-3 0  9997,2 55304  70.0014 338.8983 0003509 262.3662  97.7135 15.69972751  5534,6737.112,91.721,361.341,356.613,0.0
55304.0,STARLINK-5318,PAYLOAD,2023-02-20 23:47:23,15.69924623,0.0003293,70.0013,337.6445,262.6751,97.4071,0.00020365,0.00024346,0.0,0 STARLINK-5318,1 55304U 23010AM  23051.99124636  .00024346  00000-0  20365-3 0  9992,2 55304  70.0013 337.6445 0003293 262.6751  97.4071 15.69924623  5604,6737.25,91.724,361.333,356.896,0.0
55304.0,STARLINK-5318,PAYLOAD,2023-02-21 13:33:10,15.69907675,0.0003564,70.0012,336.0322,268.7623,91.3164,0.00055523,0.00067041,0.0,0 STARLINK-5318,1 55304U 23010AM  23052.56470546  .00067041  00000-0  55523-3 0  9993,2 55304  70.0012 336.0322 0003564 268.7623  91.3164 15.69907675  5699,6737.298,91.725,361.564,356.762,0.0
55304.0,STARLINK-5318,PAYLOAD,2023-02-21 19:40:11,15.69879666,0.0003542,70.0009,335.3156,268.1055,91.9735,0.00029281,0.00035079,0.0,0 STARLINK-5318,1 55304U 23010AM  23052.81958216  .00035079  00000-0  29281-3 0  9994,2 55304  70.0009 335.3156 0003542 268.1055  91.9735 15.69879666  5734,6737.378,91.727,361.63,356.857,0.0
55304.0,STARLINK-5318,PAYLOAD,2023-02-21 21:11:57,15.69899113,0.0003635,70.0011,335.1371,271.196,88.8819,0.00019123,0.00022821,0.0,0 STARLINK-5318,1 55304U 23010AM  23052.88329925  .00022821  00000-0  19123-3 0  9995,2 55304  70.0011 335.1371 0003635 271.1960  88.8819 15.69899113  6059,6737.323,91.726,361.637,356.739,0.0
55304.0,STARLINK-5318,PAYLOAD,2023-02-22 03:18:57,15.69925934,0.0003492,70.0007,334.42,262.9354,97.1445,0.00061289,0.00074143,0.0,0 STARLINK-5318,1 55304U 23010AM  23053.13816935  .00074143  00000-0  61289-3 0  9990,2 55304  70.0007 334.4200 0003492 262.9354  97.1445 15.69925934  5781,6737.246,91.724,361.464,356.758,0.0
55304.0,STARLINK-5318,PAYLOAD,2023-02-22 06:22:28,15.69939352,0.0003499,70.0007,334.062,261.5785,98.5014,0.00053869,0.00065107,0.0,0 STARLINK-5318,1 55304U 23010AM  23053.26560282  .00065107  00000-0  53869-3 0  9990,2 55304  70.0007 334.0620 0003499 261.5785  98.5014 15.69939352  6117,6737.208,91.723,361.43,356.715,0.0
55304.0,STARLINK-5318,PAYLOAD,2023-02-22 21:39:58,15.69974594,0.0003795,70.0004,332.2702,256.9771,103.1001,0.00062379,0.00075636,0.0,0 STARLINK-5318,1 55304U 23010AM  23053.90276599  .00075636  00000-0  62379-3 0  9990,2 55304  70.0004 332.2702 0003795 256.9771 103.1001 15.69974594  6214,6737.107,91.721,361.528,356.415,0.0
55304.0,STARLINK-5318,PAYLOAD,2023-02-23 03:46:59,15.69969955,0.0004251,70.0004,331.5537,267.0882,92.9828,0.00058914,0.00071379,0.0,0 STARLINK-5318,1 55304U 23010AM  23054.15762947  .00071379  00000-0  58914-3 0  9995,2 55304  70.0004 331.5537 0004251 267.0882  92.9828 15.69969955  5942,6737.12,91.722,361.849,356.121,0.0
55304.0,STARLINK-5318,PAYLOAD,2023-02-23 19:04:30,15.69937119,0.0002646,70.0,329.7625,258.7542,101.3357,0.0002823,0.00033883,0.0,0 STARLINK-5318,1 55304U 23010AM  23054.79480284  .00033883  00000-0  28230-3 0  9992,2 55304  70.0000 329.7625 0002646 258.7542 101.3357 15.69937119  6356,6737.214,91.723,360.862,357.296,0.0
55304.0,STARLINK-5318,PAYLOAD,2023-02-23 20:36:16,15.69932799,0.0002585,70.0001,329.584,266.5568,93.5332,0.00018153,0.00021676,0.0,0 STARLINK-5318,1 55304U 23010AM  23054.85852013  .00021676  00000-0  18153-3 0  9992,2 55304  70.0001 329.5840 0002585 266.5568  93.5332 15.69932799  6052,6737.226,91.724,360.833,357.35,0.0
55304.0,STARLINK-5318,PAYLOAD,2023-02-24 05:46:46,15.69940742,0.0002865,70.0,328.5096,275.7091,84.3778,0.00015303,0.00018239,0.0,0 STARLINK-5318,1 55304U 23010AM  23055.24081822  .00018239  00000-0  15303-3 0  9993,2 55304  70.0000 328.5096 0002865 275.7091  84.3778 15.69940742  6427,6737.204,91.723,360.999,357.138,0.0
55304.0,STARLINK-5318,PAYLOAD,2023-02-24 19:32:33,15.69917352,0.0003622,69.9998,326.8972,259.8206,100.2582,3.6653e-05,4.196e-05,0.0,0 STARLINK-5318,1 55304U 23010AM  23055.81427261  .00004196  00000-0  36653-4 0  9996,2 55304  69.9998 326.8972 0003622 259.8206 100.2582 15.69917352  6519,6737.27,91.725,361.576,356.695,0.0
55304.0,STARLINK-5318,PAYLOAD,2023-02-25 00:07:48,15.6991072,0.000359,69.9994,326.3588,264.1502,95.9285,9.1977e-06,8.93e-06,0.0,0 STARLINK-5318,1 55304U 23010AM  23056.00542575  .00000893  00000-0  91977-5 0  9995,2 55304  69.9994 326.3588 0003590 264.1502  95.9285 15.69910720  6236,6737.289,91.725,361.573,356.736,0.0
55304.0,STARLINK-5318,PAYLOAD,2023-02-25 04:43:03,15.69918417,0.0003091,70.0015,325.8205,257.6967,102.3883,2.2075e-05,2.442e-05,0.0,0 STARLINK-5318,1 55304U 23010AM  23056.19657303  .00002442  00000-0  22075-4 0  9995,2 55304  70.0015 325.8205 0003091 257.6967 102.3883 15.69918417  6262,6737.267,91.725,361.215,357.05,0.0
55304.0,STARLINK-5318,PAYLOAD,2023-02-25 20:00:35,15.69934746,0.0003544,69.9991,324.0291,260.1387,99.9409,0.00010486,0.0001242,0.0,0 STARLINK-5318,1 55304U 23010AM  23056.83373958  .00012420  00000-0  10486-3 0  9996,2 55304  69.9991 324.0291 0003544 260.1387  99.9409 15.69934746  6679,6737.221,91.724,361.473,356.698,0.0
55304.0,STARLINK-5318,PAYLOAD,2023-02-26 03:39:20,15.69946075,0.0003505,69.9997,323.1335,260.6735,99.4064,0.00011365,0.00013487,0.0,0 STARLINK-5318,1 55304U 23010AM  23057.15231931  .00013487  00000-0  11365-3 0  9997,2 55304  69.9997 323.1335 0003505 260.6735  99.4064 15.69946075  6415,6737.188,91.723,361.415,356.692,0.0
55304.0,STARLINK-5318,PAYLOAD,2023-02-26 05:11:05,15.69948067,0.0003534,69.9996,322.9542,261.4989,98.5806,0.00011534,0.00013693,0.0,0 STARLINK-5318,1 55304U 23010AM  23057.21603482  .00013693  00000-0  11534-3 0  9995,2 55304  69.9996 322.9542 0003534 261.4989  98.5806 15.69948067  6735,6737.183,91.723,361.429,356.667,0.0
